OBJECT_NAME,OBJECT_ID,EPOCH,MEAN_MOTION,ECCENTRICITY,INCLINATION,RA_OF_ASC_NODE,ARG_OF_PERICENTER,MEAN_ANOMALY,EPHEMERIS_TYPE,CLASSIFICATION_TYPE,NORAD_CAT_ID,ELEMENT_SET_NO,REV_AT_EPOCH,BSTAR,MEAN_MOTION_DOT,MEAN_MOTION_DDOT
IRIDIUM 33 DEB,1997-051QJ,2024-06-01T02:07:22.738368,14.66747056,0.0035139,86.3354,195.4298,184.7996,175.2887,0,U,35488,999,80014,0.0013702,7.727e-05,0
IRIDIUM 33 DEB,1997-051QN,2024-05-31T23:06:11.463552,14.62378839,0.0012532,86.3622,237.1687,333.8455,26.2121,0,U,35616,999,79337,0.0016924,8.588e-05,0
IRIDIUM 33 DEB,1997-051QQ,2024-05-28T13:12:05.265216,14.48071168,0.0033084,86.3421,238.8537,101.53,258.9621,0,U,35618,999,57230,0.00048428,1.833e-05,0
IRIDIUM 33 DEB,1997-051QS,2024-06-01T06:13:36.011712,14.16423581,0.0188682,86.3883,89.6726,262.6859,95.2849,0,U,35620,999,51981,0.0033435,7.924e-05,0
IRIDIUM 33 DEB,1997-051QU,2024-05-31T00:27:15.744672,14.60036131,0.0026739,86.218,168.6882,90.5136,299.4842,0,U,35622,999,79215,0.0026632,0.00012884,0
IRIDIUM 33 DEB,1997-051QX,2024-05-27T13:57:47.879424,14.2184682,0.0118122,86.1939,269.2698,214.5289,160.6198,0,U,35625,999,57997,0.0023079,5.475e-05,0
IRIDIUM 33 DEB,1997-051RA,2024-05-31T01:19:35.649408,14.54439001,0.0017261,86.3602,256.4851,83.3448,276.9723,0,U,35628,999,78257,0.0015749,6.734e-05,0
IRIDIUM 33 DEB,1997-051RD,2024-06-01T06:20:23.261568,14.44772808,0.0018738,86.3675,261.2916,177.3358,212.5285,0,U,35631,999,79111,0.00052609,1.849e-05,0
IRIDIUM 33 DEB,1997-051RE,2024-05-29T14:31:11.058240,14.4993979,0.0091108,86.4248,17.621,258.054,101.044,0,U,35632,999,77748,0.0031006,0.00012676,0
IRIDIUM 33 DEB,1997-051RJ,2024-05-31T14:30:32.155776,14.09338072,0.0183971,86.1043,267.215,251.1506,173.3823,0,U,35680,999,76564,0.0026645,5.445e-05,0
IRIDIUM 33 DEB,1997-051RX,2024-06-01T03:10:32.942208,14.59093174,0.0025226,86.3367,215.8341,322.3713,37.5731,0,U,35744,999,79135,0.0012006,5.693e-05,0
IRIDIUM 33 DEB,1997-051SC,2024-06-01T12:22:31.051488,14.87078481,0.0009842,86.3704,238.064,112.6975,247.5292,0,U,35749,999,77778,0.003886,0.00035046,0
IRIDIUM 33 DEB,1997-051SF,2024-06-01T10:58:26.946912,14.6300171,0.0017618,86.3546,222.7256,314.1693,45.8069,0,U,35797,999,79275,0.0013854,7.138e-05,0
IRIDIUM 33 DEB,1997-051SP,2024-06-01T04:13:30.319968,14.64458308,0.0060312,86.3169,303.4314,183.2035,176.8801,0,U,35805,999,77396,0.0081892,0.00044769,0
IRIDIUM 33 DEB,1997-051SQ,2024-05-31T01:08:05.511264,14.47454629,0.0016662,86.3496,265.5622,146.0687,214.1586,0,U,35806,999,78183,0.0029288,0.00010796,0
IRIDIUM 33 DEB,1997-051ST,2024-05-31T12:04:30.254016,14.59082344,0.0017948,86.3297,226.9781,27.9914,332.2257,0,U,35809,999,78589,0.0025209,0.0001191,0
IRIDIUM 33 DEB,1997-051SW,2024-05-29T08:50:40.700832,14.3896518,0.0017125,86.3753,297.9331,225.0755,134.9055,0,U,35846,999,63228,0.00078335,2.438e-05,0
IRIDIUM 33 DEB,1997-051SY,2024-05-27T02:06:10.731744,14.6056774,0.0010783,86.3942,266.316,14.2023,345.9488,0,U,35848,999,58395,0.0017153,8.362e-05,0
IRIDIUM 33 DEB,1997-051TA,2024-05-30T12:35:32.973216,14.61169376,0.0013279,86.3566,235.8514,353.8536,6.2509,0,U,35850,999,63110,0.0015632,7.726e-05,0
IRIDIUM 33 DEB,1997-051TU,2024-05-31T23:59:41.665920,14.50982118,0.0071786,86.225,241.4096,169.5588,190.7129,0,U,35911,999,78802,0.0055246,0.0002265,0
IRIDIUM 33 DEB,1997-051UB,2024-05-31T17:03:54.484128,14.43155937,0.0027028,86.4045,314.5853,236.6083,135.954,0,U,35918,999,77105,0.0022931,7.756e-05,0
IRIDIUM 33 DEB,1997-051UE,2024-05-25T22:42:16.591968,14.61267652,0.0077159,86.4113,28.828,9.8881,350.3826,0,U,35921,999,57115,0.0089637,0.00046396,0
IRIDIUM 33 DEB,1997-051UN,2024-05-31T11:07:11.883936,14.70201438,0.0023851,86.3494,210.722,201.5358,158.4857,0,U,35929,999,79462,0.0023217,0.00014081,0
IRIDIUM 33 DEB,1997-051US,2024-05-30T14:39:19.682208,14.37905123,0.001771,86.3405,275.6813,267.8706,105.2011,0,U,36011,999,77373,0.00085731,2.61e-05,0
IRIDIUM 33 DEB,1997-051UT,2024-05-24T19:43:13.730016,14.01574429,0.0269705,86.4533,172.7987,242.826,114.5192,0,U,36012,999,57490,0.0063765,0.00013289,0
IRIDIUM 33 DEB,1997-051VA,2024-06-01T05:26:21.188832,14.86268653,0.0006508,86.381,242.2051,207.9248,183.2657,0,U,36019,999,78285,0.0032079,0.00028327,0
IRIDIUM 33 DEB,1997-051VK,2024-05-31T10:37:10.129440,14.68360727,0.0025391,86.3438,204.1472,219.1496,140.7882,0,U,36028,999,78828,0.00296,0.00017229,0
IRIDIUM 33 DEB,1997-051VM,2024-05-25T00:41:37.748832,14.41832651,0.0017241,86.3215,253.8704,237.0729,122.8813,0,U,36080,999,39233,0.0012807,4.212e-05,0
IRIDIUM 33 DEB,1997-051VQ,2024-05-11T03:32:45.108384,14.38985129,0.0027132,86.3413,283.2062,346.1787,13.8666,0,U,36083,999,77086,0.0015329,4.767e-05,0
IRIDIUM 33 DEB,1997-051VU,2024-05-29T20:27:10.913760,14.60162722,0.0038073,86.3013,194.0501,302.9155,56.8394,0,U,36390,999,58021,0.00082691,4.042e-05,0
