IRIDIUM 33 DEB          
1 35488U 97051QJ  24153.08845762  .00007727  00000+0  13702-2 0  9992
2 35488  86.3354 195.4298 0035139 184.7996 175.2887 14.66747056800149
IRIDIUM 33 DEB          
1 35616U 97051QN  24152.96263268  .00008588  00000+0  16924-2 0  9991
2 35616  86.3622 237.1687 0012532 333.8455  26.2121 14.62378839793372
IRIDIUM 33 DEB          
1 35618U 97051QQ  24149.55006094  .00001833  00000+0  48428-3 0  9997
2 35618  86.3421 238.8537 0033084 101.5300 258.9621 14.48071168572303
IRIDIUM 33 DEB          
1 35620U 97051QS  24153.25944458  .00007924  00000+0  33435-2 0  9995
2 35620  86.3883  89.6726 0188682 262.6859  95.2849 14.16423581519819
IRIDIUM 33 DEB          
1 35622U 97051QU  24152.01893223  .00012884  00000+0  26632-2 0  9995
2 35622  86.2180 168.6882 0026739  90.5136 299.4842 14.60036131792152
IRIDIUM 33 DEB          
1 35625U 97051QX  24148.58180416  .00005475  00000+0  23079-2 0  9998
2 35625  86.1939 269.2698 0118122 214.5289 160.6198 14.21846820579971
IRIDIUM 33 DEB          
1 35628U 97051RA  24152.05527372  .00006734  00000+0  15749-2 0  9998
2 35628  86.3602 256.4851 0017261  83.3448 276.9723 14.54439001782575
IRIDIUM 33 DEB          
1 35631U 97051RD  24153.26415812  .00001849  00000+0  52609-3 0  9990
2 35631  86.3675 261.2916 0018738 177.3358 212.5285 14.44772808791112
IRIDIUM 33 DEB          
1 35632U 97051RE  24150.60498910  .00012676  00000+0  31006-2 0  9993
2 35632  86.4248  17.6210 0091108 258.0540 101.0440 14.49939790777481
IRIDIUM 33 DEB          
1 35680U 97051RJ  24152.60453884  .00005445  00000+0  26645-2 0  9998
2 35680  86.1043 267.2150 0183971 251.1506 173.3823 14.09338072765640
IRIDIUM 33 DEB          
1 35744U 97051RX  24153.13232572  .00005693  00000+0  12006-2 0  9998
2 35744  86.3367 215.8341 0025226 322.3713  37.5731 14.59093174791354
IRIDIUM 33 DEB          
1 35749U 97051SC  24153.51563717  .00035046  00000+0  38860-2 0  9994
2 35749  86.3704 238.0640 0009842 112.6975 247.5292 14.87078481777780
IRIDIUM 33 DEB          
1 35797U 97051SF  24153.45725633  .00007138  00000+0  13854-2 0  9994
2 35797  86.3546 222.7256 0017618 314.1693  45.8069 14.63001710792756
IRIDIUM 33 DEB          
1 35805U 97051SP  24153.17604537  .00044769  00000+0  81892-2 0  9990
2 35805  86.3169 303.4314 0060312 183.2035 176.8801 14.64458308773964
IRIDIUM 33 DEB          
1 35806U 97051SQ  24152.04728601  .00010796  00000+0  29288-2 0  9999
2 35806  86.3496 265.5622 0016662 146.0687 214.1586 14.47454629781831
IRIDIUM 33 DEB          
1 35809U 97051ST  24152.50312794  .00011910  00000+0  25209-2 0  9993
2 35809  86.3297 226.9781 0017948  27.9914 332.2257 14.59082344785899
IRIDIUM 33 DEB          
1 35846U 97051SW  24150.36852663  .00002438  00000+0  78335-3 0  9994
2 35846  86.3753 297.9331 0017125 225.0755 134.9055 14.38965180632289
IRIDIUM 33 DEB          
1 35848U 97051SY  24148.08762421  .00008362  00000+0  17153-2 0  9996
2 35848  86.3942 266.3160 0010783  14.2023 345.9488 14.60567740583958
IRIDIUM 33 DEB          
1 35850U 97051TA  24151.52468719  .00007726  00000+0  15632-2 0  9998
2 35850  86.3566 235.8514 0013279 353.8536   6.2509 14.61169376631107
IRIDIUM 33 DEB          
1 35911U 97051TU  24152.99978780  .00022650  00000+0  55246-2 0  9990
2 35911  86.2250 241.4096 0071786 169.5588 190.7129 14.50982118788024
IRIDIUM 33 DEB          
1 35918U 97051UB  24152.71104727  .00007756  00000+0  22931-2 0  9994
2 35918  86.4045 314.5853 0027028 236.6083 135.9540 14.43155937771050
IRIDIUM 33 DEB          
1 35921U 97051UE  24146.94602537  .00046396  00000+0  89637-2 0  9997
2 35921  86.4113  28.8280 0077159   9.8881 350.3826 14.61267652571152
IRIDIUM 33 DEB          
1 35929U 97051UN  24152.46333199  .00014081  00000+0  23217-2 0  9992
2 35929  86.3494 210.7220 0023851 201.5358 158.4857 14.70201438794627
IRIDIUM 33 DEB          
1 36011U 97051US  24151.61064447  .00002610  00000+0  85731-3 0  9993
2 36011  86.3405 275.6813 0017710 267.8706 105.2011 14.37905123773735
IRIDIUM 33 DEB          
1 36012U 97051UT  24145.82168669  .00013289  00000+0  63765-2 0  9997
2 36012  86.4533 172.7987 0269705 242.8260 114.5192 14.01574429574902
IRIDIUM 33 DEB          
1 36019U 97051VA  24153.22663413  .00028327  00000+0  32079-2 0  9997
2 36019  86.3810 242.2051 0006508 207.9248 183.2657 14.86268653782855
IRIDIUM 33 DEB          
1 36028U 97051VK  24152.44247835  .00017229  00000+0  29600-2 0  9991
2 36028  86.3438 204.1472 0025391 219.1496 140.7882 14.68360727788282
IRIDIUM 33 DEB          
1 36080U 97051VM  24146.02890913  .00004212  00000+0  12807-2 0  9996
2 36080  86.3215 253.8704 0017241 237.0729 122.8813 14.41832651392338
IRIDIUM 33 DEB          
1 36083U 97051VQ  24132.14774431  .00004767  00000+0  15329-2 0  9990
2 36083  86.3413 283.2062 0027132 346.1787  13.8666 14.38985129770869
IRIDIUM 33 DEB          
1 36390U 97051VU  24150.85220965  .00004042  00000+0  82691-3 0  9990
2 36390  86.3013 194.0501 0038073 302.9155  56.8394 14.60162722580212
